{
    "links": {
        "self": "http://www.neowsapp.com/rest/v1/neo/3152307?api_key=iIulBulltgU6a56xZRHN4H3l9WmuAYTsLGpBGhQ2"
    },
    "id": "3152307",
    "neo_reference_id": "3152307",
    "name": "(2003 GD)",
    "designation": "2003 GD",
    "nasa_jpl_url": "http://ssd.jpl.nasa.gov/sbdb.cgi?sstr=3152307",
    "absolute_magnitude_h": 22.1,
    "estimated_diameter": {
        "kilometers": {
            "estimated_diameter_min": 0.1010543415,
            "estimated_diameter_max": 0.2259643771
        },
        "meters": {
            "estimated_diameter_min": 101.054341542,
            "estimated_diameter_max": 225.9643771094
        },
        "miles": {
            "estimated_diameter_min": 0.0627922373,
            "estimated_diameter_max": 0.140407711
        },
        "feet": {
            "estimated_diameter_min": 331.5431259047,
            "estimated_diameter_max": 741.3529669956
        }
    },
    "is_potentially_hazardous_asteroid": false,
    "close_approach_data": [
        {
            "close_approach_date": "1999-03-18",
            "close_approach_date_full": "1999-Mar-18 13:56",
            "epoch_date_close_approach": 921765360000,
            "relative_velocity": {
                "kilometers_per_second": "18.8975816172",
                "kilometers_per_hour": "68031.2938217897",
                "miles_per_hour": "42272.0003194337"
            },
            "miss_distance": {
                "astronomical": "0.3199085058",
                "lunar": "124.4444087562",
                "kilometers": "47857631.062562646",
                "miles": "29737353.0028946748"
            },
            "orbiting_body": "Earth"
        },
        {
            "close_approach_date": "2001-03-27",
            "close_approach_date_full": "2001-Mar-27 10:37",
            "epoch_date_close_approach": 985689420000,
            "relative_velocity": {
                "kilometers_per_second": "17.7418360541",
                "kilometers_per_hour": "63870.6097946502",
                "miles_per_hour": "39686.7130693481"
            },
            "miss_distance": {
                "astronomical": "0.134133142",
                "lunar": "52.177792238",
                "kilometers": "20066032.33960754",
                "miles": "12468454.325922452"
            },
            "orbiting_body": "Earth"
        },
        {
            "close_approach_date": "2003-04-05",
            "close_approach_date_full": "2003-Apr-05 22:05",
            "epoch_date_close_approach": 1049580300000,
            "relative_velocity": {
                "kilometers_per_second": "18.2005401207",
                "kilometers_per_hour": "65521.9444344001",
                "miles_per_hour": "40712.7881959193"
            },
            "miss_distance": {
                "astronomical": "0.0609725431",
                "lunar": "23.7183192659",
                "kilometers": "9121362.576243197",
                "miles": "5667751.8877302386"
            },
            "orbiting_body": "Earth"
        },
        {
            "close_approach_date": "2005-04-14",
            "close_approach_date_full": "2005-Apr-14 23:05",
            "epoch_date_close_approach": 1113519900000,
            "relative_velocity": {
                "kilometers_per_second": "20.2127568344",
                "kilometers_per_hour": "72765.9246037777",
                "miles_per_hour": "45213.9157628307"
            },
            "miss_distance": {
                "astronomical": "0.2471773582",
                "lunar": "96.1519923398",
                "kilometers": "36977206.298947034",
                "miles": "22976570.5564317092"
            },
            "orbiting_body": "Earth"
        },
        {
            "close_approach_date": "2007-04-25",
            "close_approach_date_full": "2007-Apr-25 02:08",
            "epoch_date_close_approach": 1177466880000,
            "relative_velocity": {
                "kilometers_per_second": "23.3635683843",
                "kilometers_per_hour": "84108.8461836528",
                "miles_per_hour": "52261.966118948"
            },
            "miss_distance": {
                "astronomical": "0.4380160321",
                "lunar": "170.3882364869",
                "kilometers": "65526265.428011627",
                "miles": "40716133.3047773726"
            },
            "orbiting_body": "Earth"
        }
    ],
    "orbital_data": {
        "orbit_id": "15",
        "orbit_determination_date": "2017-04-06 09:14:12",
        "first_observation_date": "2003-04-02",
        "last_observation_date": "2003-04-22",
        "data_arc_in_days": 20,
        "observations_used": 91,
        "orbit_uncertainty": "8",
        "minimum_orbit_intersection": ".030748",
        "jupiter_tisserand_invariant": "4.127",
        "epoch_osculation": "2452736.5",
        "eccentricity": ".3669599268782961",
        "semi_major_axis": "1.60328644809806",
        "inclination": "31.34990360669412",
        "ascending_node_longitude": "13.51151785558428",
        "orbital_period": "741.5067509951692",
        "perihelion_distance": "1.014944570339033",
        "perihelion_argument": "160.3802958216067",
        "aphelion_distance": "2.191628325857088",
        "perihelion_time": "2452718.715296738447",
        "mean_anomaly": "8.634436794494931",
        "mean_motion": ".4854979398594111",
        "equinox": "J2000",
        "orbit_class": {
            "orbit_class_type": "APO",
            "orbit_class_description": "Near-Earth asteroid orbits which cross the Earth’s orbit similar to that of 1862 Apollo",
            "orbit_class_range": "a (semi-major axis) > 1.0 AU; q (perihelion) < 1.017 AU"
        }
    },
    "is_sentry_object": false
}